STARLINK-4074           
1 52678U 22053Y   25362.30375685  .00001503  00000+0  11251-3 0  9996
2 52678  53.2196 104.6916 0001205  76.7579 283.3548 15.08831810200394
STARLINK-4031           
1 52679U 22053Z   25362.27430958  .00000462  00000+0  47116-4 0  9991
2 52679  53.2188 104.7172 0001347  95.5060 264.6085 15.08837885200354
STARLINK-3774           
1 52680U 22053AA  25361.73699773  .00000852  00000+0  71610-4 0  9994
2 52680  53.2169 106.8974 0001307  88.6627 271.4515 15.08841039200299
STARLINK-4068           
1 52681U 22053AB  25361.60822897  .00001199  00000+0  93430-4 0  9995
2 52681  53.2178 107.7074 0001214  95.4401 264.6730 15.08839258200253
STARLINK-4017           
1 52682U 22053AC  25361.55302819  .00000989  00000+0  80234-4 0  9991
2 52682  53.2168 107.9532 0001004  81.9989 278.1117 15.08839154200267
STARLINK-4014           
1 52684U 22053AE  25362.01303728  .00000553  00000+0  52866-4 0  9992
2 52684  53.2184 105.8897 0001263  83.8873 276.2263 15.08835123200317
STARLINK-4029           
1 52685U 22053AF  25362.32214480 -.00001318  00000+0 -64737-4 0  9995
2 52685  53.2153 104.5022 0001550 121.3017 238.8127 15.08849927200340
STARLINK-4005           
1 52686U 22053AG  25362.29369656  .00000094  00000+0  24002-4 0  9997
2 52686  53.2188 104.9040 0001796 104.4286 255.6905 15.08840391200342
STARLINK-3981           
1 52687U 22053AH  25362.31846814  .00000420  00000+0  44474-4 0  9995
2 52687  53.2195 104.5234 0001369 100.4670 259.6476 15.08839955200342
STARLINK-4032           
1 52688U 22053AJ  25362.31477409 -.00000485  00000+0 -12381-4 0  9991
2 52688  53.2167 104.4177 0001166  77.7721 282.3402 15.08838566200344
STARLINK-4078           
1 52689U 22053AK  25362.18701454  .00049430  00000+0  10784-2 0  9991
2 52689  53.2157  64.6362 0001816   5.8198 354.2830 15.43766837200938
STARLINK-4035           
1 52690U 22053AL  25361.99462711  .00000935  00000+0  76819-4 0  9991
2 52690  53.2170 105.9731 0001217  89.6074 270.5058 15.08840015200295
STARLINK-3993           
1 52692U 22053AN  25361.62659774  .00000537  00000+0  51794-4 0  9993
2 52692  53.2188 107.3515 0001187  94.4592 265.6536 15.08838517200275
STARLINK-3946           
1 52693U 22053AP  25362.03142475  .00000899  00000+0  74568-4 0  9990
2 52693  53.2189 105.8034 0001398  94.3804 265.7348 15.08844457200334
STARLINK-4072           
1 52694U 22053AQ  25361.58246307  .00000640  00000+0  58284-4 0  9990
2 52694  53.2186 107.8247 0001358  95.5866 264.5281 15.08844535200269
STARLINK-4041           
1 52695U 22053AR  25362.28302449  .00000522  00000+0  50889-4 0  9991
2 52695  53.2167 109.4738 0001349  93.7304 266.3842 15.08839964200318
