[{"OBJECT_NAME":"STARLINK-4074","OBJECT_ID":"2022-053Y","EPOCH":"2025-12-28T07:17:24.591840","MEAN_MOTION":15.0883181,"ECCENTRICITY":0.00012059,"INCLINATION":53.2196,"RA_OF_ASC_NODE":104.6916,"ARG_OF_PERICENTER":76.7579,"MEAN_ANOMALY":283.3548,"EPHEMERIS_TYPE":0,"CLASSIFICATION_TYPE":"U","NORAD_CAT_ID":52678,"ELEMENT_SET_NO":999,"REV_AT_EPOCH":20039,"BSTAR":0.00011251249,"MEAN_MOTION_DOT":1.503e-5,"MEAN_MOTION_DDOT":0},{"OBJECT_NAME":"STARLINK-4031","OBJECT_ID":"2022-053Z","EPOCH":"2025-12-28T06:35:00.347712","MEAN_MOTION":15.08837885,"ECCENTRICITY":0.00013474,"INCLINATION":53.2188,"RA_OF_ASC_NODE":104.7172,"ARG_OF_PERICENTER":95.506,"MEAN_ANOMALY":264.6085,"EPHEMERIS_TYPE":0,"CLASSIFICATION_TYPE":"U","NORAD_CAT_ID":52679,"ELEMENT_SET_NO":999,"REV_AT_EPOCH":20035,"BSTAR":4.7115552e-5,"MEAN_MOTION_DOT":4.62e-6,"MEAN_MOTION_DDOT":0},{"OBJECT_NAME":"STARLINK-3774","OBJECT_ID":"2022-053AA","EPOCH":"2025-12-27T17:41:16.603872","MEAN_MOTION":15.08841039,"ECCENTRICITY":0.00013077,"INCLINATION":53.2169,"RA_OF_ASC_NODE":106.8974,"ARG_OF_PERICENTER":88.6627,"MEAN_ANOMALY":271.4515,"EPHEMERIS_TYPE":0,"CLASSIFICATION_TYPE":"U","NORAD_CAT_ID":52680,"ELEMENT_SET_NO":999,"REV_AT_EPOCH":20029,"BSTAR":7.1610368e-5,"MEAN_MOTION_DOT":8.52e-6,"MEAN_MOTION_DDOT":0},{"OBJECT_NAME":"STARLINK-4068","OBJECT_ID":"2022-053AB","EPOCH":"2025-12-27T14:35:50.983008","MEAN_MOTION":15.08839258,"ECCENTRICITY":0.0001214,"INCLINATION":53.2178,"RA_OF_ASC_NODE":107.7074,"ARG_OF_PERICENTER":95.4401,"MEAN_ANOMALY":264.673,"EPHEMERIS_TYPE":0,"CLASSIFICATION_TYPE":"U","NORAD_CAT_ID":52681,"ELEMENT_SET_NO":999,"REV_AT_EPOCH":20025,"BSTAR":9.3430147e-5,"MEAN_MOTION_DOT":1.199e-5,"MEAN_MOTION_DDOT":0},{"OBJECT_NAME":"STARLINK-4017","OBJECT_ID":"2022-053AC","EPOCH":"2025-12-27T13:16:21.635616","MEAN_MOTION":15.08839154,"ECCENTRICITY":0.00010043,"INCLINATION":53.2168,"RA_OF_ASC_NODE":107.9532,"ARG_OF_PERICENTER":81.9989,"MEAN_ANOMALY":278.1117,"EPHEMERIS_TYPE":0,"CLASSIFICATION_TYPE":"U","NORAD_CAT_ID":52682,"ELEMENT_SET_NO":999,"REV_AT_EPOCH":20026,"BSTAR":8.0233503e-5,"MEAN_MOTION_DOT":9.89e-6,"MEAN_MOTION_DDOT":0},{"OBJECT_NAME":"STARLINK-4014","OBJECT_ID":"2022-053AE","EPOCH":"2025-12-28T00:18:46.420992","MEAN_MOTION":15.08835123,"ECCENTRICITY":0.00012632,"INCLINATION":53.2184,"RA_OF_ASC_NODE":105.8897,"ARG_OF_PERICENTER":83.8873,"MEAN_ANOMALY":276.2263,"EPHEMERIS_TYPE":0,"CLASSIFICATION_TYPE":"U","NORAD_CAT_ID":52684,"ELEMENT_SET_NO":999,"REV_AT_EPOCH":20031,"BSTAR":5.2866171e-5,"MEAN_MOTION_DOT":5.53e-6,"MEAN_MOTION_DDOT":0},{"OBJECT_NAME":"STARLINK-4029","OBJECT_ID":"2022-053AF","EPOCH":"2025-12-28T07:43:53.310720","MEAN_MOTION":15.08849927,"ECCENTRICITY":0.00015508,"INCLINATION":53.2153,"RA_OF_ASC_NODE":104.5022,"ARG_OF_PERICENTER":121.3017,"MEAN_ANOMALY":238.8127,"EPHEMERIS_TYPE":0,"CLASSIFICATION_TYPE":"U","NORAD_CAT_ID":52685,"ELEMENT_SET_NO":999,"REV_AT_EPOCH":20034,"BSTAR":-6.4736629e-5,"MEAN_MOTION_DOT":-1.318e-5,"MEAN_MOTION_DDOT":0},{"OBJECT_NAME":"STARLINK-4005","OBJECT_ID":"2022-053AG","EPOCH":"2025-12-28T07:02:55.382784","MEAN_MOTION":15.08840391,"ECCENTRICITY":0.00017968,"INCLINATION":53.2188,"RA_OF_ASC_NODE":104.904,"ARG_OF_PERICENTER":104.4286,"MEAN_ANOMALY":255.6905,"EPHEMERIS_TYPE":0,"CLASSIFICATION_TYPE":"U","NORAD_CAT_ID":52686,"ELEMENT_SET_NO":999,"REV_AT_EPOCH":20034,"BSTAR":2.4002289e-5,"MEAN_MOTION_DOT":9.4e-7,"MEAN_MOTION_DDOT":0},{"OBJECT_NAME":"STARLINK-3981","OBJECT_ID":"2022-053AH","EPOCH":"2025-12-28T07:38:35.647296","MEAN_MOTION":15.08839955,"ECCENTRICITY":0.00013693,"INCLINATION":53.2195,"RA_OF_ASC_NODE":104.5234,"ARG_OF_PERICENTER":100.467,"MEAN_ANOMALY":259.6476,"EPHEMERIS_TYPE":0,"CLASSIFICATION_TYPE":"U","NORAD_CAT_ID":52687,"ELEMENT_SET_NO":999,"REV_AT_EPOCH":20034,"BSTAR":4.4473922e-5,"MEAN_MOTION_DOT":4.2e-6,"MEAN_MOTION_DDOT":0},{"OBJECT_NAME":"STARLINK-4032","OBJECT_ID":"2022-053AJ","EPOCH":"2025-12-28T07:33:16.481376","MEAN_MOTION":15.08838566,"ECCENTRICITY":0.00011669,"INCLINATION":53.2167,"RA_OF_ASC_NODE":104.4177,"ARG_OF_PERICENTER":77.7721,"MEAN_ANOMALY":282.3402,"EPHEMERIS_TYPE":0,"CLASSIFICATION_TYPE":"U","NORAD_CAT_ID":52688,"ELEMENT_SET_NO":999,"REV_AT_EPOCH":20034,"BSTAR":-1.2381192e-5,"MEAN_MOTION_DOT":-4.85e-6,"MEAN_MOTION_DDOT":0},{"OBJECT_NAME":"STARLINK-4078","OBJECT_ID":"2022-053AK","EPOCH":"2025-12-28T04:29:18.056256","MEAN_MOTION":15.43766837,"ECCENTRICITY":0.0001816,"INCLINATION":53.2157,"RA_OF_ASC_NODE":64.6362,"ARG_OF_PERICENTER":5.8198,"MEAN_ANOMALY":354.283,"EPHEMERIS_TYPE":0,"CLASSIFICATION_TYPE":"U","NORAD_CAT_ID":52689,"ELEMENT_SET_NO":999,"REV_AT_EPOCH":20093,"BSTAR":0.0010783518,"MEAN_MOTION_DOT":0.0004943,"MEAN_MOTION_DDOT":0},{"OBJECT_NAME":"STARLINK-4035","OBJECT_ID":"2022-053AL","EPOCH":"2025-12-27T23:52:15.782304","MEAN_MOTION":15.08840015,"ECCENTRICITY":0.00012174,"INCLINATION":53.217,"RA_OF_ASC_NODE":105.9731,"ARG_OF_PERICENTER":89.6074,"MEAN_ANOMALY":270.5058,"EPHEMERIS_TYPE":0,"CLASSIFICATION_TYPE":"U","NORAD_CAT_ID":52690,"ELEMENT_SET_NO":999,"REV_AT_EPOCH":20029,"BSTAR":7.6819165e-5,"MEAN_MOTION_DOT":9.35e-6,"MEAN_MOTION_DDOT":0},{"OBJECT_NAME":"STARLINK-3993","OBJECT_ID":"2022-053AN","EPOCH":"2025-12-27T15:02:18.044736","MEAN_MOTION":15.08838517,"ECCENTRICITY":0.00011872,"INCLINATION":53.2188,"RA_OF_ASC_NODE":107.3515,"ARG_OF_PERICENTER":94.4592,"MEAN_ANOMALY":265.6536,"EPHEMERIS_TYPE":0,"CLASSIFICATION_TYPE":"U","NORAD_CAT_ID":52692,"ELEMENT_SET_NO":999,"REV_AT_EPOCH":20027,"BSTAR":5.1794484e-5,"MEAN_MOTION_DOT":5.37e-6,"MEAN_MOTION_DDOT":0},{"OBJECT_NAME":"STARLINK-3946","OBJECT_ID":"2022-053AP","EPOCH":"2025-12-28T00:45:15.098400","MEAN_MOTION":15.08844457,"ECCENTRICITY":0.0001398,"INCLINATION":53.2189,"RA_OF_ASC_NODE":105.8034,"ARG_OF_PERICENTER":94.3804,"MEAN_ANOMALY":265.7348,"EPHEMERIS_TYPE":0,"CLASSIFICATION_TYPE":"U","NORAD_CAT_ID":52693,"ELEMENT_SET_NO":999,"REV_AT_EPOCH":20033,"BSTAR":7.4567621e-5,"MEAN_MOTION_DOT":8.99e-6,"MEAN_MOTION_DDOT":0},{"OBJECT_NAME":"STARLINK-4072","OBJECT_ID":"2022-053AQ","EPOCH":"2025-12-27T13:58:44.809248","MEAN_MOTION":15.08844535,"ECCENTRICITY":0.00013588,"INCLINATION":53.2186,"RA_OF_ASC_NODE":107.8247,"ARG_OF_PERICENTER":95.5866,"MEAN_ANOMALY":264.5281,"EPHEMERIS_TYPE":0,"CLASSIFICATION_TYPE":"U","NORAD_CAT_ID":52694,"ELEMENT_SET_NO":999,"REV_AT_EPOCH":20026,"BSTAR":5.8284009e-5,"MEAN_MOTION_DOT":6.4e-6,"MEAN_MOTION_DDOT":0},{"OBJECT_NAME":"STARLINK-4041","OBJECT_ID":"2022-053AR","EPOCH":"2025-12-28T06:47:33.315936","MEAN_MOTION":15.08839964,"ECCENTRICITY":0.00013493,"INCLINATION":53.2167,"RA_OF_ASC_NODE":109.4738,"ARG_OF_PERICENTER":93.7304,"MEAN_ANOMALY":266.3842,"EPHEMERIS_TYPE":0,"CLASSIFICATION_TYPE":"U","NORAD_CAT_ID":52695,"ELEMENT_SET_NO":999,"REV_AT_EPOCH":20031,"BSTAR":5.0889139e-5,"MEAN_MOTION_DOT":5.22e-6,"MEAN_MOTION_DDOT":0}]
